[{"OBJECT_NAME":"PRETTY","OBJECT_ID":"2023-155H","EPOCH":"2026-03-09T19:03:45.928512","MEAN_MOTION":15.22332126,"ECCENTRICITY":0.00021064,"INCLINATION":97.5727,"RA_OF_ASC_NODE":149.5557,"ARG_OF_PERICENTER":60.6464,"MEAN_ANOMALY":299.4982,"EPHEMERIS_TYPE":0,"CLASSIFICATION_TYPE":"U","NORAD_CAT_ID":58023,"ELEMENT_SET_NO":999,"REV_AT_EPOCH":13322,"BSTAR":0.00045567627,"MEAN_MOTION_DOT":0.00010441,"MEAN_MOTION_DDOT":0},{"OBJECT_NAME":"COSMOS 2251 DEB","OBJECT_ID":"1993-036SV","EPOCH":"2026-03-09T21:55:42.811680","MEAN_MOTION":15.15006345,"ECCENTRICITY":0.00579573,"INCLINATION":74.0283,"RA_OF_ASC_NODE":1.8812,"ARG_OF_PERICENTER":55.6817,"MEAN_ANOMALY":304.9843,"EPHEMERIS_TYPE":0,"CLASSIFICATION_TYPE":"U","NORAD_CAT_ID":34452,"ELEMENT_SET_NO":999,"REV_AT_EPOCH":91981,"BSTAR":0.0011020825,"MEAN_MOTION_DOT":0.00021495,"MEAN_MOTION_DDOT":0}]
